FENGYUN 1C DEB          
1 30528U 99025AJS 17345.87056532  .00000085  00000-0  64444-4 0  9998
2 30528  98.2773  51.3152 0150253 347.7892  65.0310 14.09315706559346
